{
  "norad_id": 44785,
  "name": "KL-ALPHA A",
  "history": [
    {
      "epoch": "2026-03-28T21:53:46.213152Z",
      "apogee_km": 1058.048542114465,
      "perigee_km": 1042.2358156607834,
      "latitude_deg": -8.622617518819892e-05,
      "longitude_deg": 76.57916388853818,
      "height_km": 1045.2443006985532,
      "semi_major_axis_km": 7428.279178887624,
      "eccentricity": 0.00106436,
      "inclination_deg": 88.919,
      "raan_deg": 231.3477,
      "arg_perigee_deg": 353.6763,
      "mean_anomaly_deg": 6.4254,
      "mean_motion_rev_day": 13.56033553
    },
    {
      "epoch": "2026-03-29T03:12:32.188896Z",
      "apogee_km": 1058.0365840672657,
      "perigee_km": 1042.248518708745,
      "latitude_deg": -3.4455136645646676e-05,
      "longitude_deg": -3.355088459374293,
      "height_km": 1045.2674647113115,
      "semi_major_axis_km": 7428.279551388005,
      "eccentricity": 0.0010627,
      "inclination_deg": 88.9192,
      "raan_deg": 231.3232,
      "arg_perigee_deg": 353.0255,
      "mean_anomaly_deg": 7.0749,
      "mean_motion_rev_day": 13.56033451
    },
    {
      "epoch": "2026-03-30T04:00:06.678144Z",
      "apogee_km": 1057.9873936064741,
      "perigee_km": 1042.2958977952958,
      "latitude_deg": -3.0581771279585416e-05,
      "longitude_deg": -16.380401738210438,
      "height_km": 1045.378433628995,
      "semi_major_axis_km": 7428.278645700884,
      "eccentricity": 0.0010562,
      "inclination_deg": 88.9191,
      "raan_deg": 231.2098,
      "arg_perigee_deg": 349.9128,
      "mean_anomaly_deg": 10.1812,
      "mean_motion_rev_day": 13.56033699
    },
    {
      "epoch": "2026-03-30T07:32:37.294656Z",
      "apogee_km": 1057.9646415254529,
      "perigee_km": 1042.3162322768767,
      "latitude_deg": -2.0390204840800625e-06,
      "longitude_deg": -69.66972794664362,
      "height_km": 1045.4102055336898,
      "semi_major_axis_km": 7428.277436901165,
      "eccentricity": 0.0010533,
      "inclination_deg": 88.9191,
      "raan_deg": 231.1935,
      "arg_perigee_deg": 349.4361,
      "mean_anomaly_deg": 10.657,
      "mean_motion_rev_day": 13.5603403
    },
    {
      "epoch": "2026-03-30T12:51:23.280768Z",
      "apogee_km": 1057.9552773848582,
      "perigee_km": 1042.3266262708885,
      "latitude_deg": 2.6438891818688732e-05,
      "longitude_deg": -149.60382382815283,
      "height_km": 1045.437510387825,
      "semi_major_axis_km": 7428.277951827873,
      "eccentricity": 0.00105197,
      "inclination_deg": 88.919,
      "raan_deg": 231.1692,
      "arg_perigee_deg": 348.7789,
      "mean_anomaly_deg": 11.3129,
      "mean_motion_rev_day": 13.56033889
    },
    {
      "epoch": "2026-03-30T21:42:39.872160Z",
      "apogee_km": 1057.9121792989654,
      "perigee_km": 1042.3677669050512,
      "latitude_deg": -1.5012460530594614e-05,
      "longitude_deg": 77.1729991616305,
      "height_km": 1045.5075974783958,
      "semi_major_axis_km": 7428.276973102008,
      "eccentricity": 0.0010463,
      "inclination_deg": 88.9192,
      "raan_deg": 231.1288,
      "arg_perigee_deg": 347.7107,
      "mean_anomaly_deg": 12.379,
      "mean_motion_rev_day": 13.56034157
    },
    {
      "epoch": "2026-03-31T20:43:59.023776Z",
      "apogee_km": 1057.8250856713903,
      "perigee_km": 1042.4544953364784,
      "latitude_deg": 4.905658494024114e-05,
      "longitude_deg": 90.79222389508244,
      "height_km": 1045.687566473981,
      "semi_major_axis_km": 7428.276790503934,
      "eccentricity": 0.0010346,
      "inclination_deg": 88.9194,
      "raan_deg": 231.0233,
      "arg_perigee_deg": 344.7463,
      "mean_anomaly_deg": 15.3378,
      "mean_motion_rev_day": 13.56034207
    },
    {
      "epoch": "2026-04-01T19:45:18.201312Z",
      "apogee_km": 1057.7468394570806,
      "perigee_km": 1042.533727580435,
      "latitude_deg": 7.592550155812633e-05,
      "longitude_deg": 104.41143951720866,
      "height_km": 1045.8787575990712,
      "semi_major_axis_km": 7428.277283518758,
      "eccentricity": 0.001024,
      "inclination_deg": 88.9198,
      "raan_deg": 230.9179,
      "arg_perigee_deg": 341.7609,
      "mean_anomaly_deg": 18.3177,
      "mean_motion_rev_day": 13.56034072
    },
    {
      "epoch": "2026-04-02T20:32:52.664640Z",
      "apogee_km": 1057.655535251567,
      "perigee_km": 1042.6221905602188,
      "latitude_deg": 1.8238655753397377e-05,
      "longitude_deg": 91.38623356218952,
      "height_km": 1046.1081115739348,
      "semi_major_axis_km": 7428.275862905893,
      "eccentricity": 0.0010119,
      "inclination_deg": 88.9202,
      "raan_deg": 230.8045,
      "arg_perigee_deg": 338.5108,
      "mean_anomaly_deg": 21.562,
      "mean_motion_rev_day": 13.56034461
    },
    {
      "epoch": "2026-04-02T22:19:07.995360Z",
      "apogee_km": 1057.6539661030401,
      "perigee_km": 1042.6253738753849,
      "latitude_deg": 5.59614784159016e-05,
      "longitude_deg": 64.74152700731915,
      "height_km": 1046.122757113624,
      "semi_major_axis_km": 7428.276669989213,
      "eccentricity": 0.00101158,
      "inclination_deg": 88.9203,
      "raan_deg": 230.7964,
      "arg_perigee_deg": 338.2708,
      "mean_anomaly_deg": 21.8016,
      "mean_motion_rev_day": 13.5603424
    },
    {
      "epoch": "2026-04-03T21:20:27.155616Z",
      "apogee_km": 1057.6132525693056,
      "perigee_km": 1042.664590105208,
      "latitude_deg": 2.2009474130646405e-05,
      "longitude_deg": 78.36091246223582,
      "height_km": 1046.3125759948791,
      "semi_major_axis_km": 7428.2759213372565,
      "eccentricity": 0.0010062,
      "inclination_deg": 88.9207,
      "raan_deg": 230.6911,
      "arg_perigee_deg": 335.2956,
      "mean_anomaly_deg": 24.7715,
      "mean_motion_rev_day": 13.56034445
    },
    {
      "epoch": "2026-04-04T07:57:59.035392Z",
      "apogee_km": 1057.5732624394477,
      "perigee_km": 1042.6994821006847,
      "latitude_deg": 7.752087809824481e-05,
      "longitude_deg": -81.50709391063795,
      "height_km": 1046.4275558174047,
      "semi_major_axis_km": 7428.273372270066,
      "eccentricity": 0.00100116,
      "inclination_deg": 88.9209,
      "raan_deg": 230.6423,
      "arg_perigee_deg": 333.802,
      "mean_anomaly_deg": 26.2627,
      "mean_motion_rev_day": 13.56035143
    },
    {
      "epoch": "2026-04-05T15:50:34.800000Z",
      "apogee_km": 1057.4671734839312,
      "perigee_km": 1042.8099972299287,
      "latitude_deg": -2.670775357918325e-05,
      "longitude_deg": 158.88905762237533,
      "height_km": 1046.7878062868929,
      "semi_major_axis_km": 7428.27558535693,
      "eccentricity": 0.00098658,
      "inclination_deg": 88.9215,
      "raan_deg": 230.4966,
      "arg_perigee_deg": 329.514,
      "mean_anomaly_deg": 30.5439,
      "mean_motion_rev_day": 13.56034537
    },
    {
      "epoch": "2026-04-05T21:09:20.736864Z",
      "apogee_km": 1057.4425360753385,
      "perigee_km": 1042.8311214541582,
      "latitude_deg": -1.229601665957163e-05,
      "longitude_deg": 78.95516658569552,
      "height_km": 1046.8481721302862,
      "semi_major_axis_km": 7428.273828764748,
      "eccentricity": 0.0009835,
      "inclination_deg": 88.9215,
      "raan_deg": 230.4723,
      "arg_perigee_deg": 328.8658,
      "mean_anomaly_deg": 31.1912,
      "mean_motion_rev_day": 13.56035018
    },
    {
      "epoch": "2026-04-06T07:46:52.627008Z",
      "apogee_km": 1057.4180526297587,
      "perigee_km": 1042.8537350976767,
      "latitude_deg": -8.358872145023194e-05,
      "longitude_deg": -80.91288617346157,
      "height_km": 1046.973414198874,
      "semi_major_axis_km": 7428.272893863717,
      "eccentricity": 0.00098033,
      "inclination_deg": 88.9217,
      "raan_deg": 230.4235,
      "arg_perigee_deg": 327.2909,
      "mean_anomaly_deg": 32.7636,
      "mean_motion_rev_day": 13.56035274
    }
  ]
}